[{"OBJECT_NAME":"STARLINK-11176 [DTC]","OBJECT_ID":"2024-113B","EPOCH":"2026-03-09T14:01:27.008832","MEAN_MOTION":15.69709945,"ECCENTRICITY":0.0001061,"INCLINATION":53.1573,"RA_OF_ASC_NODE":191.8067,"ARG_OF_PERICENTER":97.1103,"MEAN_ANOMALY":263.0035,"EPHEMERIS_TYPE":0,"CLASSIFICATION_TYPE":"U","NORAD_CAT_ID":60060,"ELEMENT_SET_NO":999,"REV_AT_EPOCH":9954,"BSTAR":0.00010788,"MEAN_MOTION_DOT":0.000125,"MEAN_MOTION_DDOT":0},{"OBJECT_NAME":"OBJECT AC","OBJECT_ID":"2021-022AC","EPOCH":"2026-03-09T23:52:41.913120","MEAN_MOTION":15.70257251,"ECCENTRICITY":0.00077249,"INCLINATION":97.3906,"RA_OF_ASC_NODE":343.806,"ARG_OF_PERICENTER":62.9634,"MEAN_ANOMALY":297.2416,"EPHEMERIS_TYPE":0,"CLASSIFICATION_TYPE":"U","NORAD_CAT_ID":47958,"ELEMENT_SET_NO":999,"REV_AT_EPOCH":27427,"BSTAR":0.0010525747,"MEAN_MOTION_DOT":0.00129469,"MEAN_MOTION_DDOT":0}]
